{
 "type": "FeatureCollection",
 "source": "GEM Global Active Faults Database (Styron & Pagani 2020), harmonized version; faults of the region from the EMME model (Danciu et al. 2018). CC BY-SA 4.0. https://github.com/GEMScienceTools/gem-global-active-faults",
 "note": "ME_JO1 split at its existing vertex near 32.74N (south end of the Sea of Galilee) into galilee and jordan-valley. No coordinates were added or moved.",
 "features": [
  {
   "type": "Feature",
   "properties": {
    "id": "ME_JO99s1",
    "gem_id": "ME_JO99s1",
    "segment": "arava",
    "catalog": "EMME",
    "slip_type": "Sinistral",
    "net_slip_rate_mm_yr": "(4.0,3.5,4.6)"
   },
   "geometry": {
    "type": "LineString",
    "coordinates": [
     [
      34.9395,
      29.3509
     ],
     [
      34.6063,
      28.6228
     ]
    ]
   }
  },
  {
   "type": "Feature",
   "properties": {
    "id": "ME_JO99s2",
    "gem_id": "ME_JO99s2",
    "segment": "arava",
    "catalog": "EMME",
    "slip_type": "Sinistral",
    "net_slip_rate_mm_yr": "(4.0,3.5,4.6)"
   },
   "geometry": {
    "type": "LineString",
    "coordinates": [
     [
      34.8193,
      28.8551
     ],
     [
      34.4721,
      28.0767
     ]
    ]
   }
  },
  {
   "type": "Feature",
   "properties": {
    "id": "ME_JO4",
    "gem_id": "ME_JO4",
    "segment": "arava",
    "catalog": "EMME",
    "slip_type": "Sinistral",
    "net_slip_rate_mm_yr": "(4.8,3.5,6.0)"
   },
   "geometry": {
    "type": "LineString",
    "coordinates": [
     [
      35.5073,
      31.0393
     ],
     [
      35.4835,
      30.9282
     ],
     [
      35.4294,
      30.8573
     ],
     [
      35.3935,
      30.7214
     ],
     [
      35.3591,
      30.6034
     ],
     [
      35.3403,
      30.5781
     ],
     [
      35.2828,
      30.4349
     ],
     [
      35.2713,
      30.4031
     ],
     [
      35.2152,
      30.2041
     ],
     [
      35.2031,
      30.1834
     ],
     [
      35.1062,
      29.8697
     ],
     [
      35.0836,
      29.8385
     ],
     [
      35.0147,
      29.6484
     ],
     [
      34.7581,
      29.171
     ]
    ]
   }
  },
  {
   "type": "Feature",
   "properties": {
    "id": "ME_JO8",
    "gem_id": "ME_JO8",
    "segment": "arava",
    "catalog": "EMME",
    "slip_type": "Sinistral",
    "net_slip_rate_mm_yr": "(0.4,0.2,0.63)"
   },
   "geometry": {
    "type": "LineString",
    "coordinates": [
     [
      35.4015,
      30.4246
     ],
     [
      35.4005,
      30.325
     ],
     [
      35.275,
      29.5335
     ]
    ]
   }
  },
  {
   "type": "Feature",
   "properties": {
    "id": "ME_JO5",
    "gem_id": "ME_JO5",
    "segment": "arava",
    "catalog": "EMME",
    "slip_type": "Normal",
    "net_slip_rate_mm_yr": "(0.5,0.025,1.0)"
   },
   "geometry": {
    "type": "LineString",
    "coordinates": [
     [
      35.337,
      30.277
     ],
     [
      35.2816,
      30.2154
     ],
     [
      35.2333,
      30.1463
     ],
     [
      35.2284,
      30.0589
     ],
     [
      35.2044,
      29.9855
     ],
     [
      35.1363,
      29.8073
     ],
     [
      35.1148,
      29.6902
     ],
     [
      35.0525,
      29.5172
     ],
     [
      35.0383,
      29.4195
     ],
     [
      35.049,
      29.338
     ]
    ]
   }
  },
  {
   "type": "Feature",
   "properties": {
    "id": "ME_JO7",
    "gem_id": "ME_JO7",
    "segment": "arava",
    "catalog": "EMME",
    "slip_type": "Normal",
    "net_slip_rate_mm_yr": "(0.5,0.025,1.0)"
   },
   "geometry": {
    "type": "LineString",
    "coordinates": [
     [
      35.5847,
      30.6987
     ],
     [
      35.5658,
      30.6619
     ],
     [
      35.5205,
      30.6173
     ],
     [
      35.4538,
      30.5518
     ],
     [
      35.4043,
      30.4531
     ]
    ]
   }
  },
  {
   "type": "Feature",
   "properties": {
    "id": "ME_JO2",
    "gem_id": "ME_JO2",
    "segment": "dead-sea",
    "catalog": "EMME",
    "slip_type": "Sinistral",
    "net_slip_rate_mm_yr": "(3.5,3.14,3.84)"
   },
   "geometry": {
    "type": "LineString",
    "coordinates": [
     [
      35.4778,
      31.7036
     ],
     [
      35.4367,
      31.6682
     ],
     [
      35.4051,
      31.5886
     ],
     [
      35.361,
      31.2222
     ],
     [
      35.353,
      30.9889
     ]
    ]
   }
  },
  {
   "type": "Feature",
   "properties": {
    "id": "ME_JO3",
    "gem_id": "ME_JO3",
    "segment": "dead-sea",
    "catalog": "EMME",
    "slip_type": "Sinistral",
    "net_slip_rate_mm_yr": "(1.6,0.5,2.69)"
   },
   "geometry": {
    "type": "LineString",
    "coordinates": [
     [
      35.6381,
      31.7961
     ],
     [
      35.6174,
      31.7653
     ],
     [
      35.6128,
      31.7362
     ],
     [
      35.5705,
      31.612
     ],
     [
      35.5423,
      31.265
     ],
     [
      35.5169,
      31.1149
     ]
    ]
   }
  },
  {
   "type": "Feature",
   "properties": {
    "id": "ME_LB1s2",
    "gem_id": "ME_LB1s2",
    "segment": "lebanon",
    "catalog": "EMME",
    "slip_type": "Sinistral",
    "net_slip_rate_mm_yr": "(4.7,3.0,6.41)"
   },
   "geometry": {
    "type": "LineString",
    "coordinates": [
     [
      35.5588,
      33.1671
     ],
     [
      35.5768,
      33.3532
     ],
     [
      35.648,
      33.5133
     ],
     [
      35.7208,
      33.6658
     ],
     [
      35.7567,
      33.7209
     ],
     [
      35.7944,
      33.7635
     ],
     [
      35.9217,
      33.9534
     ],
     [
      35.9654,
      34.0056
     ],
     [
      36.0101,
      34.0856
     ],
     [
      36.0592,
      34.1744
     ],
     [
      36.1652,
      34.293
     ],
     [
      36.206,
      34.3291
     ],
     [
      36.2866,
      34.4752
     ],
     [
      36.313,
      34.568
     ],
     [
      36.3281,
      34.6701
     ]
    ]
   }
  },
  {
   "type": "Feature",
   "properties": {
    "id": "ME_LB3s1",
    "gem_id": "ME_LB3s1",
    "segment": "lebanon",
    "catalog": "EMME",
    "slip_type": "Sinistral",
    "net_slip_rate_mm_yr": "(0.9,0.5,1.3)"
   },
   "geometry": {
    "type": "LineString",
    "coordinates": [
     [
      35.6615,
      33.1318
     ],
     [
      35.6431,
      33.2007
     ],
     [
      35.6755,
      33.3038
     ],
     [
      35.7328,
      33.417
     ],
     [
      35.7909,
      33.469
     ],
     [
      35.8525,
      33.5497
     ],
     [
      35.8979,
      33.5949
     ],
     [
      35.9397,
      33.6503
     ],
     [
      36.0051,
      33.7212
     ]
    ]
   }
  },
  {
   "type": "Feature",
   "properties": {
    "id": "ME_LB3s2",
    "gem_id": "ME_LB3s2",
    "segment": "lebanon",
    "catalog": "EMME",
    "slip_type": "Sinistral",
    "net_slip_rate_mm_yr": "(0.9,0.5,1.3)"
   },
   "geometry": {
    "type": "LineString",
    "coordinates": [
     [
      36.0036,
      33.5039
     ],
     [
      36.1008,
      33.6491
     ],
     [
      36.1911,
      33.7726
     ],
     [
      36.2108,
      33.8945
     ],
     [
      36.3075,
      34.0694
     ],
     [
      36.4393,
      34.2192
     ]
    ]
   }
  },
  {
   "type": "Feature",
   "properties": {
    "id": "ME_LB2",
    "gem_id": "ME_LB2",
    "segment": "lebanon",
    "catalog": "EMME",
    "slip_type": "Reverse",
    "net_slip_rate_mm_yr": "(1.5,1.0,2.0)"
   },
   "geometry": {
    "type": "LineString",
    "coordinates": [
     [
      35.2612,
      33.7589
     ],
     [
      35.4114,
      33.9618
     ],
     [
      35.4869,
      33.9929
     ],
     [
      35.5545,
      34.1187
     ],
     [
      35.5572,
      34.2207
     ],
     [
      35.6657,
      34.3381
     ]
    ]
   }
  },
  {
   "type": "Feature",
   "properties": {
    "id": "ME_JO1-north",
    "gem_id": "ME_JO1",
    "segment": "galilee",
    "catalog": "EMME",
    "slip_type": "Sinistral",
    "net_slip_rate_mm_yr": "(4.8,3.5,6.0)"
   },
   "geometry": {
    "type": "LineString",
    "coordinates": [
     [
      35.5601,
      33.134
     ],
     [
      35.6214,
      33.0167
     ],
     [
      35.6292,
      32.9368
     ],
     [
      35.6099,
      32.7395
     ]
    ]
   }
  },
  {
   "type": "Feature",
   "properties": {
    "id": "ME_JO1-south",
    "gem_id": "ME_JO1",
    "segment": "jordan-valley",
    "catalog": "EMME",
    "slip_type": "Sinistral",
    "net_slip_rate_mm_yr": "(4.8,3.5,6.0)"
   },
   "geometry": {
    "type": "LineString",
    "coordinates": [
     [
      35.6099,
      32.7395
     ],
     [
      35.5452,
      31.9042
     ],
     [
      35.4866,
      31.7287
     ]
    ]
   }
  }
 ]
}